{
  "norad_id": 68577,
  "name": "KUIPER-00194",
  "history": [
    {
      "epoch": "2026-05-04T20:00:01.999008Z",
      "apogee_km": 479.96030101680844,
      "perigee_km": 476.2757495662181,
      "latitude_deg": -37.412144020062726,
      "longitude_deg": 80.57346462736048,
      "height_km": 488.60375243302906,
      "semi_major_axis_km": 6856.255025291513,
      "eccentricity": 0.0002687,
      "inclination_deg": 51.8812,
      "raan_deg": 26.6545,
      "arg_perigee_deg": 193.7742,
      "mean_anomaly_deg": 36.4409,
      "mean_motion_rev_day": 15.29228267
    },
    {
      "epoch": "2026-05-05T20:00:03.000384Z",
      "apogee_km": 484.3284304359131,
      "perigee_km": 479.201339766988,
      "latitude_deg": -18.54973002415812,
      "longitude_deg": -157.00357667136964,
      "height_km": 488.1606857611707,
      "semi_major_axis_km": 6859.901885101451,
      "eccentricity": 0.0003737,
      "inclination_deg": 51.8816,
      "raan_deg": 21.8905,
      "arg_perigee_deg": 212.1623,
      "mean_anomaly_deg": 124.179,
      "mean_motion_rev_day": 15.28008977
    },
    {
      "epoch": "2026-05-06T20:00:01.999008Z",
      "apogee_km": 491.1976642473228,
      "perigee_km": 487.13359455124464,
      "latitude_deg": 49.583109251551306,
      "longitude_deg": -81.16955188932428,
      "height_km": 496.08271056694167,
      "semi_major_axis_km": 6867.302629399283,
      "eccentricity": 0.0002959,
      "inclination_deg": 51.882,
      "raan_deg": 17.1392,
      "arg_perigee_deg": 205.7239,
      "mean_anomaly_deg": 229.218,
      "mean_motion_rev_day": 15.25539589
    },
    {
      "epoch": "2026-05-07T20:00:01.999008Z",
      "apogee_km": 498.3164058129996,
      "perigee_km": 494.33059361526466,
      "latitude_deg": 12.389986457042632,
      "longitude_deg": 16.858083901394433,
      "height_km": 495.0589148229019,
      "semi_major_axis_km": 6874.460499714131,
      "eccentricity": 0.0002899,
      "inclination_deg": 51.8818,
      "raan_deg": 12.4104,
      "arg_perigee_deg": 214.959,
      "mean_anomaly_deg": 309.2399,
      "mean_motion_rev_day": 15.23157561
    },
    {
      "epoch": "2026-05-08T20:00:01.999008Z",
      "apogee_km": 506.4689595652844,
      "perigee_km": 500.825896334366,
      "latitude_deg": -45.71068745763998,
      "longitude_deg": 74.14859676985022,
      "height_km": 516.5620471169677,
      "semi_major_axis_km": 6881.784427949825,
      "eccentricity": 0.00041,
      "inclination_deg": 51.8821,
      "raan_deg": 7.6969,
      "arg_perigee_deg": 216.214,
      "mean_anomaly_deg": 28.8589,
      "mean_motion_rev_day": 15.20726681
    },
    {
      "epoch": "2026-05-09T20:00:04.000032Z",
      "apogee_km": 511.79605265477585,
      "perigee_km": 508.7100539109051,
      "latitude_deg": -31.024234650785548,
      "longitude_deg": 167.3485427292003,
      "height_km": 520.0803212246407,
      "semi_major_axis_km": 6888.39005328284,
      "eccentricity": 0.000224,
      "inclination_deg": 51.8838,
      "raan_deg": 2.9972,
      "arg_perigee_deg": 213.3997,
      "mean_anomaly_deg": 105.9402,
      "mean_motion_rev_day": 15.18539753
    },
    {
      "epoch": "2026-05-10T20:00:01.999008Z",
      "apogee_km": 516.0455428619234,
      "perigee_km": 513.4083331192478,
      "latitude_deg": 20.604149790247074,
      "longitude_deg": -153.2716946475406,
      "height_km": 516.4171194374874,
      "semi_major_axis_km": 6892.863937990585,
      "eccentricity": 0.0001913,
      "inclination_deg": 51.8848,
      "raan_deg": 358.3103,
      "arg_perigee_deg": 212.7371,
      "mean_anomaly_deg": 173.7663,
      "mean_motion_rev_day": 15.17061557
    },
    {
      "epoch": "2026-05-11T20:00:01.999008Z",
      "apogee_km": 520.1548286366442,
      "perigee_km": 516.5327969137761,
      "latitude_deg": 51.97250778071399,
      "longitude_deg": -89.95109882292621,
      "height_km": 525.8646715191728,
      "semi_major_axis_km": 6896.48081277521,
      "eccentricity": 0.0002626,
      "inclination_deg": 51.8858,
      "raan_deg": 353.6359,
      "arg_perigee_deg": 227.2189,
      "mean_anomaly_deg": 220.3554,
      "mean_motion_rev_day": 15.15868274
    },
    {
      "epoch": "2026-05-12T20:00:01.999008Z",
      "apogee_km": 523.532980846302,
      "perigee_km": 520.215455452616,
      "latitude_deg": 25.900981090727072,
      "longitude_deg": -23.90841109888613,
      "height_km": 522.6607530550256,
      "semi_major_axis_km": 6900.011218149459,
      "eccentricity": 0.0002404,
      "inclination_deg": 51.8871,
      "raan_deg": 348.9638,
      "arg_perigee_deg": 230.4173,
      "mean_anomaly_deg": 275.9906,
      "mean_motion_rev_day": 15.14705027
    },
    {
      "epoch": "2026-05-13T20:00:01.999008Z",
      "apogee_km": 531.1506256680641,
      "perigee_km": 528.38331933668,
      "latitude_deg": -12.760889718583915,
      "longitude_deg": 2.896367787508783,
      "height_km": 531.9422333065065,
      "semi_major_axis_km": 6907.903972502372,
      "eccentricity": 0.0002003,
      "inclination_deg": 51.8877,
      "raan_deg": 344.3159,
      "arg_perigee_deg": 233.1004,
      "mean_anomaly_deg": 323.0274,
      "mean_motion_rev_day": 15.12109787
    },
    {
      "epoch": "2026-05-14T06:00:02.000160Z",
      "apogee_km": 534.7352431892468,
      "perigee_km": 530.8555839509163,
      "latitude_deg": -40.8606830345869,
      "longitude_deg": -22.065727128632293,
      "height_km": 545.4207326128414,
      "semi_major_axis_km": 6910.932413570081,
      "eccentricity": 0.00028069,
      "inclination_deg": 51.8882,
      "raan_deg": 342.3826,
      "arg_perigee_deg": 237.3587,
      "mean_anomaly_deg": 66.6984,
      "mean_motion_rev_day": 15.11115963
    }
  ]
}